{
  "type": "FeatureCollection",
  "features": [
    {
      "type": "Feature",
      "properties": {
        "norad_id": 43647,
        "name": "BEIDOU-3 M16 (C35)",
        "group": "gnss",
        "lat": -28.339039670626292,
        "lon": 149.0210131341505,
        "alt_km": 21551.36278708396,
        "timestamp": "2025-12-21T14:40:48.160128+00:00",
        "meta_object_name": "BEIDOU-3 M16 (C35)",
        "meta_object_id": "2018-078A",
        "meta_epoch": "2025-12-21T06:57:26.615232",
        "meta_mean_motion": 1.86232398,
        "meta_eccentricity": 0.00073895,
        "meta_inclination": 54.254,
        "meta_ra_of_asc_node": 306.2225,
        "meta_arg_of_pericenter": 20.1677,
        "meta_mean_anomaly": 339.8585,
        "meta_ephemeris_type": 0,
        "meta_classification_type": "U",
        "meta_norad_cat_id": 43647,
        "meta_element_set_no": 999,
        "meta_rev_at_epoch": 4884,
        "meta_bstar": 0,
        "meta_mean_motion_dot": -6.2e-07,
        "meta_mean_motion_ddot": 0,
        "tle_line1": "1 43647U 18078A   25355.28989138 -.00000062  00000+0  00000+0 0  9993",
        "tle_line2": "2 43647  54.2540 306.2225 0007389  20.1677 339.8585  1.86232398 48843"
      },
      "geometry": {
        "type": "Point",
        "coordinates": [
          149.0210131341505,
          -28.339039670626292
        ]
      }
    },
    {
      "type": "Feature",
      "properties": {
        "norad_id": 43648,
        "name": "BEIDOU-3 M15 (C34)",
        "group": "gnss",
        "lat": 38.97951924955128,
        "lon": 90.57722679143686,
        "alt_km": 21526.838177360965,
        "timestamp": "2025-12-21T14:40:48.160139+00:00",
        "meta_object_name": "BEIDOU-3 M15 (C34)",
        "meta_object_id": "2018-078B",
        "meta_epoch": "2025-12-20T21:10:18.962688",
        "meta_mean_motion": 1.8623233,
        "meta_eccentricity": 0.00039935,
        "meta_inclination": 54.2503,
        "meta_ra_of_asc_node": 306.237,
        "meta_arg_of_pericenter": 19.942,
        "meta_mean_anomaly": 340.0692,
        "meta_ephemeris_type": 0,
        "meta_classification_type": "U",
        "meta_norad_cat_id": 43648,
        "meta_element_set_no": 999,
        "meta_rev_at_epoch": 4885,
        "meta_bstar": 0,
        "meta_mean_motion_dot": -6.5e-07,
        "meta_mean_motion_ddot": 0,
        "tle_line1": "1 43648U 18078B   25354.88216392 -.00000065  00000+0  00000+0 0  9997",
        "tle_line2": "2 43648  54.2503 306.2370 0003993  19.9420 340.0692  1.86232330 48853"
      },
      "geometry": {
        "type": "Point",
        "coordinates": [
          90.57722679143686,
          38.97951924955128
        ]
      }
    },
    {
      "type": "Feature",
      "properties": {
        "norad_id": 43683,
        "name": "BEIDOU-3 G1 (C59)",
        "group": "gnss",
        "lat": -0.5231766413571837,
        "lon": 90.62736194725362,
        "alt_km": 35783.70763761848,
        "timestamp": "2025-12-21T14:40:48.160153+00:00",
        "meta_object_name": "BEIDOU-3 G1 (C59)",
        "meta_object_id": "2018-085A",
        "meta_epoch": "2025-12-21T07:00:57.399264",
        "meta_mean_motion": 1.00268218,
        "meta_eccentricity": 0.00015585,
        "meta_inclination": 2.6281,
        "meta_ra_of_asc_node": 102.715,
        "meta_arg_of_pericenter": 46.0785,
        "meta_mean_anomaly": 186.5697,
        "meta_ephemeris_type": 0,
        "meta_classification_type": "U",
        "meta_norad_cat_id": 43683,
        "meta_element_set_no": 999,
        "meta_rev_at_epoch": 2627,
        "meta_bstar": 0,
        "meta_mean_motion_dot": -2.57e-06,
        "meta_mean_motion_ddot": 0,
        "tle_line1": "1 43683U 18085A   25355.29233101 -.00000257  00000+0  00000+0 0  9990",
        "tle_line2": "2 43683   2.6281 102.7150 0001558  46.0785 186.5697  1.00268218 26277"
      },
      "geometry": {
        "type": "Point",
        "coordinates": [
          90.62736194725362,
          -0.5231766413571837
        ]
      }
    },
    {
      "type": "Feature",
      "properties": {
        "norad_id": 43687,
        "name": "COSMOS 2529 (757)",
        "group": "gnss",
        "lat": -30.628788328155416,
        "lon": 35.17569401826352,
        "alt_km": 19120.11148623583,
        "timestamp": "2025-12-21T14:40:48.160164+00:00",
        "meta_object_name": "COSMOS 2529 (757)",
        "meta_object_id": "2018-086A",
        "meta_epoch": "2025-12-20T20:42:25.544160",
        "meta_mean_motion": 2.13102145,
        "meta_eccentricity": 0.00070209,
        "meta_inclination": 64.2923,
        "meta_ra_of_asc_node": 198.6139,
        "meta_arg_of_pericenter": 253.6005,
        "meta_mean_anomaly": 106.3966,
        "meta_ephemeris_type": 0,
        "meta_classification_type": "U",
        "meta_norad_cat_id": 43687,
        "meta_element_set_no": 999,
        "meta_rev_at_epoch": 5548,
        "meta_bstar": 0,
        "meta_mean_motion_dot": 9.8e-07,
        "meta_mean_motion_ddot": 0,
        "tle_line1": "1 43687U 18086A   25354.86279565  .00000098  00000+0  00000+0 0  9993",
        "tle_line2": "2 43687  64.2923 198.6139 0007020 253.6005 106.3966  2.13102145 55485"
      },
      "geometry": {
        "type": "Point",
        "coordinates": [
          35.17569401826352,
          -30.628788328155416
        ]
      }
    },
    {
      "type": "Feature",
      "properties": {
        "norad_id": 43706,
        "name": "BEIDOU-3 M17 (C36)",
        "group": "gnss",
        "lat": 18.26060871429313,
        "lon": -157.87658595054862,
        "alt_km": 21521.70122251459,
        "timestamp": "2025-12-21T14:40:48.160177+00:00",
        "meta_object_name": "BEIDOU-3 M17 (C36)",
        "meta_object_id": "2018-093A",
        "meta_epoch": "2025-12-20T12:04:20.840736",
        "meta_mean_motion": 1.86228485,
        "meta_eccentricity": 0.00060883,
        "meta_inclination": 54.1751,
        "meta_ra_of_asc_node": 188.3582,
        "meta_arg_of_pericenter": 307.8758,
        "meta_mean_anomaly": 51.559,
        "meta_ephemeris_type": 0,
        "meta_classification_type": "U",
        "meta_norad_cat_id": 43706,
        "meta_element_set_no": 999,
        "meta_rev_at_epoch": 4820,
        "meta_bstar": 0,
        "meta_mean_motion_dot": 9.7e-07,
        "meta_mean_motion_ddot": 0,
        "tle_line1": "1 43706U 18093A   25354.50301899  .00000097  00000+0  00000+0 0  9999",
        "tle_line2": "2 43706  54.1751 188.3582 0006088 307.8758  51.5590  1.86228485 48203"
      },
      "geometry": {
        "type": "Point",
        "coordinates": [
          -157.87658595054862,
          18.26060871429313
        ]
      }
    },
    {
      "type": "Feature",
      "properties": {
        "norad_id": 43707,
        "name": "BEIDOU-3 M18 (C37)",
        "group": "gnss",
        "lat": 46.95817212403284,
        "lon": -42.39873392832139,
        "alt_km": 21531.956871538237,
        "timestamp": "2025-12-21T14:40:48.160189+00:00",
        "meta_object_name": "BEIDOU-3 M18 (C37)",
        "meta_object_id": "2018-093B",
        "meta_epoch": "2025-12-20T21:39:28.587744",
        "meta_mean_motion": 1.86226757,
        "meta_eccentricity": 0.00062168,
        "meta_inclination": 54.1741,
        "meta_ra_of_asc_node": 188.3365,
        "meta_arg_of_pericenter": 353.7926,
        "meta_mean_anomaly": 6.2524,
        "meta_ephemeris_type": 0,
        "meta_classification_type": "U",
        "meta_norad_cat_id": 43707,
        "meta_element_set_no": 999,
        "meta_rev_at_epoch": 4821,
        "meta_bstar": 0,
        "meta_mean_motion_dot": 9.5e-07,
        "meta_mean_motion_ddot": 0,
        "tle_line1": "1 43707U 18093B   25354.90241421  .00000095  00000+0  00000+0 0  9996",
        "tle_line2": "2 43707  54.1741 188.3365 0006216 353.7926   6.2524  1.86226757 48217"
      },
      "geometry": {
        "type": "Point",
        "coordinates": [
          -42.39873392832139,
          46.95817212403284
        ]
      }
    },
    {
      "type": "Feature",
      "properties": {
        "norad_id": 43873,
        "name": "GPS BIII-1  (PRN 04)",
        "group": "gnss",
        "lat": 50.26491481349591,
        "lon": 154.67777232392845,
        "alt_km": 20236.38776276774,
        "timestamp": "2025-12-21T14:40:48.160201+00:00",
        "meta_object_name": "GPS BIII-1  (PRN 04)",
        "meta_object_id": "2018-109A",
        "meta_epoch": "2025-12-20T14:49:36.231744",
        "meta_mean_motion": 2.00553966,
        "meta_eccentricity": 0.0037575,
        "meta_inclination": 55.571,
        "meta_ra_of_asc_node": 99.2363,
        "meta_arg_of_pericenter": 195.36,
        "meta_mean_anomaly": 236.122,
        "meta_ephemeris_type": 0,
        "meta_classification_type": "U",
        "meta_norad_cat_id": 43873,
        "meta_element_set_no": 999,
        "meta_rev_at_epoch": 5149,
        "meta_bstar": 0,
        "meta_mean_motion_dot": -1.2e-07,
        "meta_mean_motion_ddot": 0,
        "tle_line1": "1 43873U 18109A   25354.61778046 -.00000012  00000+0  00000+0 0  9994",
        "tle_line2": "2 43873  55.5710  99.2363 0037575 195.3600 236.1220  2.00553966 51494"
      },
      "geometry": {
        "type": "Point",
        "coordinates": [
          154.67777232392845,
          50.26491481349591
        ]
      }
    }
  ]
}